COSMOS 2529 (757)       
1 43687U 18086A   26084.18377329  .00000005  00000+0  00000+0 0  9994
2 43687  64.2947 195.4281 0008714 253.5032 106.4055  2.13101936 57494
