{
  "norad_id": 43687,
  "name": "COSMOS 2529 [GLONASS-M]",
  "history": [
    {
      "epoch": "2026-03-25T04:24:38.012256",
      "apogee_km": 19152.121762093713,
      "perigee_km": 19107.663307257135,
      "latitude_deg": -60.109807464264335,
      "longitude_deg": 78.3422358399257,
      "semi_major_axis_km": 25508.029534675425,
      "eccentricity": 0.00087146,
      "inclination_deg": 64.2947,
      "raan_deg": 195.4281,
      "arg_perigee_deg": 253.5032,
      "mean_anomaly_deg": 106.4055,
      "mean_motion_rev_day": 2.13101936
    }
  ]
}